{
  "type": "FeatureCollection",
  "features": [
    {
      "type": "Feature",
      "properties": {
        "norad_id": 40118,
        "name": "GAOFEN-2",
        "group": "resource",
        "lat": -60.60825495188971,
        "lon": 75.65431573222547,
        "alt_km": 638.6031033764384,
        "timestamp": "2025-12-27T22:26:48.270118+00:00",
        "meta_object_name": "GAOFEN-2",
        "meta_object_id": "2014-049A",
        "meta_epoch": "2025-12-27T12:59:35.988000",
        "meta_mean_motion": 14.8063611,
        "meta_eccentricity": 0.0008739,
        "meta_inclination": 98.0361,
        "meta_ra_of_asc_node": 60.7342,
        "meta_arg_of_pericenter": 72.1919,
        "meta_mean_anomaly": 288.0245,
        "meta_ephemeris_type": 0,
        "meta_classification_type": "U",
        "meta_norad_cat_id": 40118,
        "meta_element_set_no": 999,
        "meta_rev_at_epoch": 61383,
        "meta_bstar": 0.00021243,
        "meta_mean_motion_dot": 1.579e-05,
        "meta_mean_motion_ddot": 0,
        "tle_line1": "1 40118U 14049A   25361.54138875  .00001579  00000+0  21243-3 0  9996",
        "tle_line2": "2 40118  98.0361  60.7342 0008739  72.1919 288.0245 14.80636110613831"
      },
      "geometry": {
        "type": "Point",
        "coordinates": [
          75.65431573222547,
          -60.60825495188971
        ]
      }
    },
    {
      "type": "Feature",
      "properties": {
        "norad_id": 40143,
        "name": "YAOGAN-21",
        "group": "resource",
        "lat": 80.02780173872863,
        "lon": -89.65912401747103,
        "alt_km": 488.46164850209425,
        "timestamp": "2025-12-27T22:26:48.270131+00:00",
        "meta_object_name": "YAOGAN-21",
        "meta_object_id": "2014-053A",
        "meta_epoch": "2025-12-27T12:34:02.604864",
        "meta_mean_motion": 15.23833644,
        "meta_eccentricity": 0.0008298,
        "meta_inclination": 97.1738,
        "meta_ra_of_asc_node": 44.1934,
        "meta_arg_of_pericenter": 352.397,
        "meta_mean_anomaly": 7.7141,
        "meta_ephemeris_type": 0,
        "meta_classification_type": "U",
        "meta_norad_cat_id": 40143,
        "meta_element_set_no": 999,
        "meta_rev_at_epoch": 62879,
        "meta_bstar": 0.00043991,
        "meta_mean_motion_dot": 0.0001055,
        "meta_mean_motion_ddot": 0,
        "tle_line1": "1 40143U 14053A   25361.52364126  .00010550  00000+0  43991-3 0  9990",
        "tle_line2": "2 40143  97.1738  44.1934 0008298 352.3970   7.7141 15.23833644628791"
      },
      "geometry": {
        "type": "Point",
        "coordinates": [
          -89.65912401747103,
          80.02780173872863
        ]
      }
    },
    {
      "type": "Feature",
      "properties": {
        "norad_id": 40275,
        "name": "YAOGAN-22",
        "group": "resource",
        "lat": 75.55433311191183,
        "lon": 98.09810816362075,
        "alt_km": 1197.6935767989044,
        "timestamp": "2025-12-27T22:26:48.270142+00:00",
        "meta_object_name": "YAOGAN-22",
        "meta_object_id": "2014-063A",
        "meta_epoch": "2025-12-27T05:36:45.156672",
        "meta_mean_motion": 13.15523321,
        "meta_eccentricity": 0.0006126,
        "meta_inclination": 100.7431,
        "meta_ra_of_asc_node": 144.8585,
        "meta_arg_of_pericenter": 213.6133,
        "meta_mean_anomaly": 146.459,
        "meta_ephemeris_type": 0,
        "meta_classification_type": "U",
        "meta_norad_cat_id": 40275,
        "meta_element_set_no": 999,
        "meta_rev_at_epoch": 53720,
        "meta_bstar": 7.6263e-05,
        "meta_mean_motion_dot": -1.8e-07,
        "meta_mean_motion_ddot": 0,
        "tle_line1": "1 40275U 14063A   25361.23385598 -.00000018  00000+0  76263-4 0  9999",
        "tle_line2": "2 40275 100.7431 144.8585 0006126 213.6133 146.4590 13.15523321537207"
      },
      "geometry": {
        "type": "Point",
        "coordinates": [
          98.09810816362075,
          75.55433311191183
        ]
      }
    },
    {
      "type": "Feature",
      "properties": {
        "norad_id": 40298,
        "name": "ASNARO",
        "group": "resource",
        "lat": -76.97511746898545,
        "lon": 111.49911846218289,
        "alt_km": 517.388658370176,
        "timestamp": "2025-12-27T22:26:48.270152+00:00",
        "meta_object_name": "ASNARO",
        "meta_object_id": "2014-070A",
        "meta_epoch": "2025-12-27T11:44:02.676768",
        "meta_mean_motion": 15.19808719,
        "meta_eccentricity": 0.0005665,
        "meta_inclination": 97.3633,
        "meta_ra_of_asc_node": 77.0754,
        "meta_arg_of_pericenter": 82.2048,
        "meta_mean_anomaly": 277.983,
        "meta_ephemeris_type": 0,
        "meta_classification_type": "U",
        "meta_norad_cat_id": 40298,
        "meta_element_set_no": 999,
        "meta_rev_at_epoch": 61793,
        "meta_bstar": 0.00076304,
        "meta_mean_motion_dot": 0.00016306,
        "meta_mean_motion_ddot": 0,
        "tle_line1": "1 40298U 14070A   25361.48891987  .00016306  00000+0  76304-3 0  9994",
        "tle_line2": "2 40298  97.3633  77.0754 0005665  82.2048 277.9830 15.19808719617933"
      },
      "geometry": {
        "type": "Point",
        "coordinates": [
          111.49911846218289,
          -76.97511746898545
        ]
      }
    },
    {
      "type": "Feature",
      "properties": {
        "norad_id": 40310,
        "name": "YAOGAN-24",
        "group": "resource",
        "lat": 39.64957897447614,
        "lon": 126.31266844651647,
        "alt_km": 631.7502230667569,
        "timestamp": "2025-12-27T22:26:48.270161+00:00",
        "meta_object_name": "YAOGAN-24",
        "meta_object_id": "2014-072A",
        "meta_epoch": "2025-12-27T12:30:18.325152",
        "meta_mean_motion": 14.76206797,
        "meta_eccentricity": 0.0015225,
        "meta_inclination": 98.1231,
        "meta_ra_of_asc_node": 132.6941,
        "meta_arg_of_pericenter": 93.9558,
        "meta_mean_anomaly": 266.3392,
        "meta_ephemeris_type": 0,
        "meta_classification_type": "U",
        "meta_norad_cat_id": 40310,
        "meta_element_set_no": 999,
        "meta_rev_at_epoch": 59839,
        "meta_bstar": 0.00015237,
        "meta_mean_motion_dot": 1.003e-05,
        "meta_mean_motion_ddot": 0,
        "tle_line1": "1 40310U 14072A   25361.52104543  .00001003  00000+0  15237-3 0  9997",
        "tle_line2": "2 40310  98.1231 132.6941 0015225  93.9558 266.3392 14.76206797598398"
      },
      "geometry": {
        "type": "Point",
        "coordinates": [
          126.31266844651647,
          39.64957897447614
        ]
      }
    },
    {
      "type": "Feature",
      "properties": {
        "norad_id": 40336,
        "name": "CBERS 4",
        "group": "resource",
        "lat": 76.43985587580208,
        "lon": 22.032131227299832,
        "alt_km": 764.7852118496066,
        "timestamp": "2025-12-27T22:26:48.270171+00:00",
        "meta_object_name": "CBERS 4",
        "meta_object_id": "2014-079A",
        "meta_epoch": "2025-12-27T12:02:31.100640",
        "meta_mean_motion": 14.35524338,
        "meta_eccentricity": 0.0001894,
        "meta_inclination": 98.3285,
        "meta_ra_of_asc_node": 59.0119,
        "meta_arg_of_pericenter": 95.7836,
        "meta_mean_anomaly": 264.3566,
        "meta_ephemeris_type": 0,
        "meta_classification_type": "U",
        "meta_norad_cat_id": 40336,
        "meta_element_set_no": 999,
        "meta_rev_at_epoch": 57932,
        "meta_bstar": 0.00015489,
        "meta_mean_motion_dot": 4.04e-06,
        "meta_mean_motion_ddot": 0,
        "tle_line1": "1 40336U 14079A   25361.50174885  .00000404  00000+0  15489-3 0  9999",
        "tle_line2": "2 40336  98.3285  59.0119 0001894  95.7836 264.3566 14.35524338579324"
      },
      "geometry": {
        "type": "Point",
        "coordinates": [
          22.032131227299832,
          76.43985587580208
        ]
      }
    },
    {
      "type": "Feature",
      "properties": {
        "norad_id": 40362,
        "name": "YAOGAN-26",
        "group": "resource",
        "lat": -44.59888314617672,
        "lon": 9.09708887550988,
        "alt_km": 450.8875442092931,
        "timestamp": "2025-12-27T22:26:48.270180+00:00",
        "meta_object_name": "YAOGAN-26",
        "meta_object_id": "2014-088A",
        "meta_epoch": "2025-12-27T13:17:02.468256",
        "meta_mean_motion": 15.39827345,
        "meta_eccentricity": 0.0004021,
        "meta_inclination": 97.0647,
        "meta_ra_of_asc_node": 1.704,
        "meta_arg_of_pericenter": 340.9873,
        "meta_mean_anomaly": 19.1223,
        "meta_ephemeris_type": 0,
        "meta_classification_type": "U",
        "meta_norad_cat_id": 40362,
        "meta_element_set_no": 999,
        "meta_rev_at_epoch": 61122,
        "meta_bstar": 0.00029908,
        "meta_mean_motion_dot": 0.00011793,
        "meta_mean_motion_ddot": 0,
        "tle_line1": "1 40362U 14088A   25361.55350079  .00011793  00000+0  29908-3 0  9998",
        "tle_line2": "2 40362  97.0647   1.7040 0004021 340.9873  19.1223 15.39827345611220"
      },
      "geometry": {
        "type": "Point",
        "coordinates": [
          9.09708887550988,
          -44.59888314617672
        ]
      }
    }
  ]
}